[{"OBJECT_NAME":"SENTINEL-1D","OBJECT_ID":"2025-251A","EPOCH":"2026-03-09T22:39:29.854656","MEAN_MOTION":14.59197847,"ECCENTRICITY":0.00012838,"INCLINATION":98.1825,"RA_OF_ASC_NODE":77.7074,"ARG_OF_PERICENTER":89.3991,"MEAN_ANOMALY":270.7355,"EPHEMERIS_TYPE":0,"CLASSIFICATION_TYPE":"U","NORAD_CAT_ID":66315,"ELEMENT_SET_NO":999,"REV_AT_EPOCH":1825,"BSTAR":3.3692424e-5,"MEAN_MOTION_DOT":1.13e-6,"MEAN_MOTION_DDOT":0},{"OBJECT_NAME":"DMSP 5D-2 F14 DEB","OBJECT_ID":"1997-012Q","EPOCH":"2026-03-09T23:21:01.007712","MEAN_MOTION":14.50313252,"ECCENTRICITY":0.00958774,"INCLINATION":98.0832,"RA_OF_ASC_NODE":102.8195,"ARG_OF_PERICENTER":225.2782,"MEAN_ANOMALY":134.0578,"EPHEMERIS_TYPE":0,"CLASSIFICATION_TYPE":"U","NORAD_CAT_ID":62944,"ELEMENT_SET_NO":999,"REV_AT_EPOCH":49547,"BSTAR":0.0023249234,"MEAN_MOTION_DOT":9.58e-5,"MEAN_MOTION_DDOT":0}]
